NORAD_CAT_ID,OBJECT_NAME,OBJECT_TYPE,EPOCH,MEAN_MOTION,ECCENTRICITY,INCLINATION,RA_OF_ASC_NODE,ARG_OF_PERICENTER,MEAN_ANOMALY,BSTAR,MEAN_MOTION_DOT,MEAN_MOTION_DDOT,TLE_LINE0,TLE_LINE1,TLE_LINE2,SEMIMAJOR_AXIS,PERIOD,APOGEE,PERIGEE,DECAYED
53532.0,STARLINK-4483,PAYLOAD,2023-10-21 12:56:58,15.08846378,0.0001285,53.2177,20.3786,104.2037,255.9098,0.00037141,5.629e-05,0.0,0 STARLINK-4483,1 53532U 22101F   23294.53956122  .00005629  00000-0  37141-3 0  9998,2 53532  53.2177  20.3786 0001285 104.2037 255.9098 15.08846378 64800,6917.861,95.437,540.615,538.837,0.0
53532.0,STARLINK-4483,PAYLOAD,2023-10-21 22:29:16,15.08844841,0.0001288,53.2178,18.5935,106.7986,253.3147,0.00034938,5.278e-05,0.0,0 STARLINK-4483,1 53532U 22101F   23294.93700127  .00005278  00000-0  34938-3 0  9995,2 53532  53.2178  18.5935 0001288 106.7986 253.3147 15.08844841 64865,6917.866,95.437,540.622,538.84,0.0
53532.0,STARLINK-4483,PAYLOAD,2023-10-22 04:50:50,15.08823904,0.0001355,53.2176,17.4033,84.4757,275.639,-0.00018884,-3.291e-05,0.0,0 STARLINK-4483,1 53532U 22101F   23295.20196882 -.00003291  00000-0 -18884-3 0  9990,2 53532  53.2176  17.4033 0001355  84.4757 275.6390 15.08823904 64902,6917.93,95.439,540.732,538.857,0.0
53532.0,STARLINK-4483,PAYLOAD,2023-10-22 11:12:22,15.08832732,0.0001314,53.2178,16.2166,88.4077,271.7066,-2.2835e-07,-2.92e-06,0.0,0 STARLINK-4483,1 53532U 22101F   23295.46692765 -.00000292  00000-0 -22835-6 0  9991,2 53532  53.2178  16.2166 0001314  88.4077 271.7066 15.08832732 64942,6917.903,95.438,540.677,538.859,0.0
53532.0,STARLINK-4483,PAYLOAD,2023-10-22 12:47:45,15.08834916,0.0001197,53.2176,15.9201,89.2541,270.8588,2.7114e-05,1.44e-06,0.0,0 STARLINK-4483,1 53532U 22101F   23295.53316646  .00000144  00000-0  27114-4 0  9997,2 53532  53.2176  15.9201 0001197  89.2541 270.8588 15.08834916 64956,6917.896,95.438,540.589,538.933,0.0
53532.0,STARLINK-4483,PAYLOAD,2023-10-22 22:20:04,15.08834987,0.0001175,53.2169,14.1361,90.5971,269.5156,0.0001261,1.719e-05,0.0,0 STARLINK-4483,1 53532U 22101F   23295.93060877  .00001719  00000-0  12610-3 0  9996,2 53532  53.2169  14.1361 0001175  90.5971 269.5156 15.08834987 65016,6917.896,95.438,540.574,538.948,0.0
53532.0,STARLINK-4483,PAYLOAD,2023-10-23 22:10:51,15.08840842,0.0001314,53.2181,9.6763,92.1475,267.9667,0.00018577,2.67e-05,0.0,0 STARLINK-4483,1 53532U 22101F   23296.92421227  .00002670  00000-0  18577-3 0  9991,2 53532  53.2181   9.6763 0001314  92.1475 267.9667 15.08840842 65169,6917.878,95.438,540.652,538.834,0.0
53532.0,STARLINK-4483,PAYLOAD,2023-10-24 04:32:24,15.0884038,0.0001459,53.218,8.4872,87.8361,272.2799,0.00019557,2.826e-05,0.0,0 STARLINK-4483,1 53532U 22101F   23297.18917351  .00002826  00000-0  19557-3 0  9990,2 53532  53.2180   8.4872 0001459  87.8361 272.2799 15.08840380 65208,6917.879,95.438,540.754,538.735,0.0
53532.0,STARLINK-4483,PAYLOAD,2023-10-24 12:29:20,15.08844699,0.0001413,53.2175,6.9991,89.0988,271.0166,0.00028771,4.294e-05,0.0,0 STARLINK-4483,1 53532U 22101F   23297.52037246  .00004294  00000-0  28771-3 0  9993,2 53532  53.2175   6.9991 0001413  89.0988 271.0166 15.08844699 65253,6917.866,95.437,540.709,538.754,0.0
53532.0,STARLINK-4483,PAYLOAD,2023-10-25 09:09:21,15.08842359,0.0001602,53.2183,3.1338,80.5768,279.5405,0.00017695,2.529e-05,0.0,0 STARLINK-4483,1 53532U 22101F   23298.38149500  .00002529  00000-0  17695-3 0  9997,2 53532  53.2183   3.1338 0001602  80.5768 279.5405 15.08842359 65382,6917.873,95.437,540.846,538.63,0.0
53532.0,STARLINK-4483,PAYLOAD,2023-10-26 10:35:30,15.08849748,0.0001527,53.2169,358.3751,82.3992,277.7173,0.00016343,2.315e-05,0.0,0 STARLINK-4483,1 53532U 22101F   23299.44132912  .00002315  00000-0  16343-3 0  9996,2 53532  53.2169 358.3751 0001527  82.3992 277.7173 15.08849748 65544,6917.851,95.437,540.772,538.659,0.0
53532.0,STARLINK-4483,PAYLOAD,2023-10-27 13:37:03,15.08858385,0.0001413,53.2165,353.3175,93.9619,266.1534,0.00024393,3.598e-05,0.0,0 STARLINK-4483,1 53532U 22101F   23300.56739864  .00003598  00000-0  24393-3 0  9999,2 53532  53.2165 353.3175 0001413  93.9619 266.1534 15.08858385 65712,6917.824,95.436,540.667,538.712,0.0
53532.0,STARLINK-4483,PAYLOAD,2023-10-28 10:17:05,15.08837485,0.0001427,53.2164,349.4539,92.7256,267.3899,-4.7884e-05,-1.05e-05,0.0,0 STARLINK-4483,1 53532U 22101F   23301.42853159 -.00001050  00000-0 -47884-4 0  9993,2 53532  53.2164 349.4539 0001427  92.7256 267.3899 15.08837485 65849,6917.888,95.438,540.74,538.766,0.0
53532.0,STARLINK-4483,PAYLOAD,2023-10-28 13:27:51,15.08838708,0.0001425,53.216,348.8581,97.6124,262.503,1.8735e-05,1e-07,0.0,0 STARLINK-4483,1 53532U 22101F   23301.56100979  .00000010  00000-0  18735-4 0  9999,2 53532  53.2160 348.8581 0001425  97.6124 262.5030 15.08838708 65866,6917.884,95.438,540.735,538.764,0.0
53532.0,STARLINK-4483,PAYLOAD,2023-10-28 19:49:23,15.08840588,0.0001497,53.2167,347.6687,96.7065,263.4097,8.4457e-05,1.056e-05,0.0,0 STARLINK-4483,1 53532U 22101F   23301.82596983  .00001056  00000-0  84457-4 0  9997,2 53532  53.2167 347.6687 0001497  96.7065 263.4097 15.08840588 65907,6917.879,95.438,540.779,538.708,0.0
53532.0,STARLINK-4483,PAYLOAD,2023-10-29 10:07:51,15.08852657,0.0001528,53.2175,344.9942,100.4071,259.7094,0.00046731,7.16e-05,0.0,0 STARLINK-4483,1 53532U 22101F   23302.42212722  .00007160  00000-0  46731-3 0  9994,2 53532  53.2175 344.9942 0001528 100.4071 259.7094 15.08852657 65999,6917.842,95.437,540.764,538.65,0.0
53532.0,STARLINK-4483,PAYLOAD,2023-10-29 19:40:10,15.08849917,9.5e-05,53.2173,343.2081,80.9383,279.1716,0.00047988,7.36e-05,0.0,0 STARLINK-4483,1 53532U 22101F   23302.81956609  .00007360  00000-0  47988-3 0  9993,2 53532  53.2173 343.2081 0000950  80.9383 279.1716 15.08849917 66059,6917.85,95.437,540.372,539.058,0.0
53532.0,STARLINK-4483,PAYLOAD,2023-10-30 03:37:07,15.08811948,0.0001615,53.2161,341.7225,91.2294,268.8883,-0.00059757,-9.778e-05,0.0,0 STARLINK-4483,1 53532U 22101F   23303.15078140 -.00009778  00000-0 -59757-3 0  9990,2 53532  53.2161 341.7225 0001615  91.2294 268.8883 15.08811948 66103,6917.966,95.439,540.948,538.714,0.0
53532.0,STARLINK-4483,PAYLOAD,2023-10-30 09:58:40,15.08815383,0.0001586,53.2166,340.5343,93.7001,266.4173,-0.0002702,-4.583e-05,0.0,0 STARLINK-4483,1 53532U 22101F   23303.41574557 -.00004583  00000-0 -27020-3 0  9999,2 53532  53.2166 340.5343 0001586  93.7001 266.4173 15.08815383 66143,6917.956,95.439,540.918,538.723,0.0
53532.0,STARLINK-4483,PAYLOAD,2023-10-31 11:24:51,15.08853716,0.0001639,53.2157,335.7756,84.9503,275.1676,0.0015314,0.00024177,0.0,0 STARLINK-4483,1 53532U 22101F   23304.47559502  .00024177  00000-0  15314-2 0  9990,2 53532  53.2157 335.7756 0001639  84.9503 275.1676 15.08853716 66300,6917.838,95.437,540.837,538.57,0.0
53532.0,STARLINK-4483,PAYLOAD,2023-10-31 19:21:46,15.08857285,0.0001672,53.2157,334.2885,85.5181,274.6002,0.0010546,0.00016544,0.0,0 STARLINK-4483,1 53532U 22101F   23304.80679286  .00016544  00000-0  10546-2 0  9990,2 53532  53.2157 334.2885 0001672  85.5181 274.6002 15.08857285 66350,6917.828,95.436,540.849,538.536,0.0
53532.0,STARLINK-4483,PAYLOAD,2023-11-01 09:40:14,15.08872176,0.0001643,53.2156,331.6117,87.6376,272.4805,0.00097754,0.00015317,0.0,0 STARLINK-4483,1 53532U 22101F   23305.40294363  .00015317  00000-0  97754-3 0  9990,2 53532  53.2156 331.6117 0001643  87.6376 272.4805 15.08872176 66448,6917.782,95.436,540.784,538.51,0.0
53532.0,STARLINK-4483,PAYLOAD,2023-11-01 19:12:32,15.08866974,0.0001802,53.217,329.8271,91.0406,269.0793,0.00062298,9.648e-05,0.0,0 STARLINK-4483,1 53532U 22101F   23305.80038061  .00009648  00000-0  62298-3 0  9990,2 53532  53.2170 329.8271 0001802  91.0406 269.0793 15.08866974 66508,6917.798,95.436,540.91,538.416,0.0
53532.0,STARLINK-4483,PAYLOAD,2023-11-02 01:34:05,15.08856659,0.0001871,53.2166,328.6392,90.2523,269.8684,0.00013442,1.853e-05,0.0,0 STARLINK-4483,1 53532U 22101F   23306.06533989  .00001853  00000-0  13442-3 0  9995,2 53532  53.2166 328.6392 0001871  90.2523 269.8684 15.08856659 66541,6917.829,95.437,540.989,538.4,0.0
53532.0,STARLINK-4483,PAYLOAD,2023-11-02 11:06:23,15.08858074,0.0002044,53.2183,326.8527,96.4534,263.6691,0.00022377,3.277e-05,0.0,0 STARLINK-4483,1 53532U 22101F   23306.46277695  .00003277  00000-0  22377-3 0  9997,2 53532  53.2183 326.8527 0002044  96.4534 263.6691 15.08858074 66603,6917.825,95.436,541.104,538.276,0.0
53532.0,STARLINK-4483,PAYLOAD,2023-11-02 19:03:19,15.08844734,0.0002075,53.2164,325.3675,85.9586,274.1643,-2.4184e-05,-6.73e-06,0.0,0 STARLINK-4483,1 53532U 22101F   23306.79398121 -.00000673  00000-0 -24184-4 0  9999,2 53532  53.2164 325.3675 0002075  85.9586 274.1643 15.08844734 66651,6917.866,95.437,541.166,538.295,0.0
53532.0,STARLINK-4483,PAYLOAD,2023-11-03 07:46:24,15.08846023,0.0001839,53.2171,322.9884,90.8318,269.2885,0.00030198,4.522e-05,0.0,0 STARLINK-4483,1 53532U 22101F   23307.32390025  .00004522  00000-0  30198-3 0  9990,2 53532  53.2171 322.9884 0001839  90.8318 269.2885 15.08846023 66734,6917.862,95.437,540.999,538.455,0.0
53532.0,STARLINK-4483,PAYLOAD,2023-11-04 04:26:26,15.0884084,0.0001908,53.2174,319.1222,90.8445,269.2766,0.00029565,4.42e-05,0.0,0 STARLINK-4483,1 53532U 22101F   23308.18502326  .00004420  00000-0  29565-3 0  9997,2 53532  53.2174 319.1222 0001908  90.8445 269.2766 15.08840840 66862,6917.878,95.438,541.063,538.423,0.0
53532.0,STARLINK-4483,PAYLOAD,2023-11-04 10:47:58,15.08848575,0.0001879,53.2175,317.9323,94.21,265.9107,0.00036441,5.518e-05,0.0,0 STARLINK-4483,1 53532U 22101F   23308.44998053  .00005518  00000-0  36441-3 0  9992,2 53532  53.2175 317.9323 0001879  94.2100 265.9107 15.08848575 66904,6917.854,95.437,541.019,538.419,0.0
53532.0,STARLINK-4483,PAYLOAD,2023-11-05 05:52:35,15.08852346,0.0001852,53.2168,314.36,93.0015,267.1189,0.00037141,5.63e-05,0.0,0 STARLINK-4483,1 53532U 22101F   23309.24486059  .00005630  00000-0  37141-3 0  9992,2 53532  53.2168 314.3600 0001852  93.0015 267.1189 15.08852346 67027,6917.843,95.437,540.989,538.426,0.0
